<?xml version="1.0" encoding="UTF-8"?>
<kml xmlns="http://www.opengis.net/kml/2.2" xmlns:gx="http://www.google.com/kml/ext/2.2" xmlns:kml="http://www.opengis.net/kml/2.2" xmlns:atom="http://www.w3.org/2005/Atom">
<Document>
	<name>AREA.kml</name>
	<StyleMap id="m_ylw-pushpin">
		<Pair>
			<key>normal</key>
			<styleUrl>#s_ylw-pushpin</styleUrl>
		</Pair>
		<Pair>
			<key>highlight</key>
			<styleUrl>#s_ylw-pushpin_hl</styleUrl>
		</Pair>
	</StyleMap>
	<Style id="s_ylw-pushpin">
		<IconStyle>
			<scale>1.1</scale>
			<Icon>
				<href>http://maps.google.com/mapfiles/kml/pushpin/ylw-pushpin.png</href>
			</Icon>
			<hotSpot x="20" y="2" xunits="pixels" yunits="pixels"/>
		</IconStyle>
		<PolyStyle>
			<fill>0</fill>
		</PolyStyle>
	</Style>
	<Style id="s_ylw-pushpin_hl">
		<IconStyle>
			<scale>1.3</scale>
			<Icon>
				<href>http://maps.google.com/mapfiles/kml/pushpin/ylw-pushpin.png</href>
			</Icon>
			<hotSpot x="20" y="2" xunits="pixels" yunits="pixels"/>
		</IconStyle>
		<PolyStyle>
			<fill>0</fill>
		</PolyStyle>
	</Style>
	<Placemark>
		<name>Polígono sin título</name>
		<styleUrl>#m_ylw-pushpin</styleUrl>
		<Polygon>
			<tessellate>1</tessellate>
			<outerBoundaryIs>
				<LinearRing>
					<coordinates>
						-96.51112536334975,17.8312120993268,0 -96.51100114965304,17.83137482048274,0 -96.51113759273224,17.83150155509686,0 -96.51125957749474,17.83159727371624,0 -96.5113303877073,17.83163259419113,0 -96.51138050364789,17.83166683892862,0 -96.51145101722825,17.83171502117728,0 -96.51152423224053,17.83175111197681,0 -96.51165537565082,17.83182021352205,0 -96.51175318953099,17.83188663796202,0 -96.51182439100747,17.83191703183496,0 -96.51196862670793,17.83203194627354,0 -96.51207023715362,17.83210287311982,0 -96.51223276221947,17.83223073882286,0 -96.51233756754293,17.83232615119053,0 -96.51245572027439,17.83242062455347,0 -96.5125150125582,17.8323605003754,0 -96.51244265213009,17.83199885606155,0 -96.51237925380622,17.83183260708913,0 -96.51227786198925,17.83158422377462,0 -96.51210877347616,17.83136046023339,0 -96.51189876026966,17.83122794947792,0 -96.51167610526754,17.83115181171163,0 -96.51139949586644,17.83114339574842,0 -96.51112536334975,17.8312120993268,0 
					</coordinates>
				</LinearRing>
			</outerBoundaryIs>
		</Polygon>
		<atom:link rel="app" href="https://www.google.com/earth/about/versions/#earth-pro" title="Google Earth Pro 7.3.6.10201"></atom:link>
	</Placemark>
</Document>
</kml>
